OBJECT_NAME,OBJECT_ID,EPOCH,MEAN_MOTION,ECCENTRICITY,INCLINATION,RA_OF_ASC_NODE,ARG_OF_PERICENTER,MEAN_ANOMALY,EPHEMERIS_TYPE,CLASSIFICATION_TYPE,NORAD_CAT_ID,ELEMENT_SET_NO,REV_AT_EPOCH,BSTAR,MEAN_MOTION_DOT,MEAN_MOTION_DDOT
ONEWEB-0336,2021-083S,2026-07-18T19:06:30.447936,13.13468829,.0001787,87.8978,313.9369,91.7294,268.4040,0,U,49202,999,23506,-.50508E-3,-.172E-5,0
ONEWEB-0337,2021-083T,2026-07-18T19:20:56.859360,13.13469148,.000202,87.8978,313.9405,94.0981,266.0379,0,U,49203,999,23506,-.81271E-3,-.284E-5,0
ONEWEB-0338,2021-083U,2026-07-18T15:09:37.632384,13.20770663,.000214,87.9178,268.1807,106.6250,253.5118,0,U,49204,999,24096,-.41883E-4,-.4E-7,0
ONEWEB-0339,2021-083V,2026-07-18T19:33:19.519200,13.13469880,.0002182,87.8980,313.9320,105.1423,254.9947,0,U,49205,999,23504,-.899E-3,-.316E-5,0
ONEWEB-0340,2021-083W,2026-07-18T18:34:35.246784,13.18685901,.000183,87.9201,329.1755,94.1294,266.0048,0,U,49206,999,23413,-.43954E-3,-.16E-5,0
ONEWEB-0341,2021-083X,2026-07-18T18:44:17.491200,13.18685205,.000233,87.9196,329.1756,88.4406,271.6993,0,U,49207,999,23415,-.37386E-3,-.134E-5,0
ONEWEB-0342,2021-083Y,2026-07-18T17:08:23.951040,13.20784032,.0002071,87.9175,268.1536,105.2985,254.8378,0,U,49208,999,24094,.22517E-3,.105E-5,0
ONEWEB-0343,2021-083Z,2026-07-18T18:56:26.091168,13.18687475,.00023,87.9194,329.1729,104.3681,255.7706,0,U,49209,999,23420,.158E-3,.75E-6,0
ONEWEB-0344,2021-083AA,2026-07-18T19:25:59.693088,13.13469586,.0002221,87.8977,313.9460,90.2812,269.8572,0,U,49210,999,23504,-.70951E-3,-.246E-5,0
ONEWEB-0345,2021-083AB,2026-07-18T19:13:49.185408,13.13469891,.0002175,87.8990,313.9327,94.7471,265.3906,0,U,49211,999,23505,-.83058E-3,-.291E-5,0
ONEWEB-0346,2021-083AC,2026-07-18T18:51:34.604352,13.18687500,.0001442,87.9189,329.1726,83.0075,277.1221,0,U,49212,999,23414,.69776E-5,.16E-6,0
ONEWEB-0348,2021-083AD,2026-07-18T16:53:52.543104,13.20772388,.0001999,87.9184,268.1610,83.3312,276.8049,0,U,49213,999,24097,-.44235E-4,-.5E-7,0
ONEWEB-0350,2021-083AE,2026-07-18T19:40:49.050624,13.13472343,.000178,87.8982,313.9336,133.1719,226.9559,0,U,49214,999,23508,-.37418E-3,-.124E-5,0
ONEWEB-0351,2021-083AF,2026-07-18T16:43:58.879200,13.20770463,.0002706,87.9182,268.1612,101.3796,258.7641,0,U,49215,999,24093,-.66452E-4,-.14E-6,0
ONEWEB-0352,2021-083AG,2026-07-18T18:59:11.859072,13.13469638,.0002314,87.8981,313.9438,105.7836,254.3548,0,U,49216,999,23517,.62326E-4,.36E-6,0
ONEWEB-0354,2021-083AH,2026-07-18T17:22:58.016640,13.20771235,.0002097,87.9178,268.1547,87.0590,273.0783,0,U,49217,999,24097,-.17395E-4,.6E-7,0
ONEWEB-0355,2021-083AJ,2026-07-18T19:41:49.514208,13.13468481,.0002149,87.8976,313.9386,100.3301,259.8071,0,U,49218,999,23505,-.52286E-3,-.178E-5,0
ONEWEB-0357,2021-083AK,2026-07-18T17:18:06.640416,13.20770382,.0002268,87.9178,268.1496,101.9902,258.1485,0,U,49219,999,24097,.8158E-6,.13E-6,0
ONEWEB-0332,2021-090A,2026-07-18T17:33:12.637728,13.14503676,.0002017,87.8962,283.4239,105.9939,254.1413,0,U,49279,999,23172,-.56253E-3,-.196E-5,0
ONEWEB-0347,2021-090B,2026-07-18T17:03:34.316640,13.20769129,.0002118,87.9181,268.1590,104.4051,255.7318,0,U,49280,999,23520,-.27745E-3,-.1E-5,0
ONEWEB-0349,2021-090C,2026-07-18T17:49:37.384320,13.20770668,.0002081,87.9183,268.1534,97.7828,262.3541,0,U,49281,999,23399,.16502E-3,.8E-6,0
ONEWEB-0353,2021-090D,2026-07-18T17:21:47.954016,13.14502735,.0002007,87.8967,283.4219,107.3065,252.8285,0,U,49282,999,23172,-.77107E-3,-.273E-5,0
ONEWEB-0356,2021-090E,2026-07-18T17:47:12.469920,13.20771663,.0001249,87.9180,268.1471,98.7317,261.3958,0,U,49283,999,23399,.17495E-3,.84E-6,0
ONEWEB-0358,2021-090F,2026-07-18T16:50:13.030944,13.20770639,.000193,87.9183,268.1625,95.4438,264.6915,0,U,49284,999,23471,.87253E-4,.48E-6,0
ONEWEB-0359,2021-090G,2026-07-18T16:36:53.876736,13.20770121,.0002081,87.9181,268.1566,90.2108,269.9263,0,U,49285,999,23469,-.15979E-4,.6E-7,0
ONEWEB-0360,2021-090H,2026-07-18T16:22:22.590624,13.20771543,.0002194,87.9180,268.1652,97.1812,262.9571,0,U,49286,999,23400,.73205E-4,.43E-6,0
ONEWEB-0361,2021-090J,2026-07-18T17:44:46.032288,13.20773158,.0001981,87.9183,268.1520,94.6450,265.4909,0,U,49287,999,23446,.10269E-3,.55E-6,0
ONEWEB-0362,2021-090K,2026-07-18T19:01:38.836704,13.19738520,.0002315,87.9186,298.6850,100.3023,259.8371,0,U,49288,999,23108,.3223E-2,.1304E-4,0
ONEWEB-0363,2021-090L,2026-07-18T18:06:35.978976,13.20774462,.0001821,87.9184,268.1494,96.3713,263.7628,0,U,49289,999,23447,-.11448E-2,-.452E-5,0
ONEWEB-0364,2021-090M,2026-07-18T15:24:10.457280,13.20770585,.0002101,87.9182,268.1792,99.3824,260.7547,0,U,49290,999,23559,-.26805E-4,.2E-7,0
